[{"OBJECT_NAME":"STARLINK-31228","OBJECT_ID":"2024-017S","EPOCH":"2026-03-09T16:21:34.540992","MEAN_MOTION":15.30186757,"ECCENTRICITY":0.00011148,"INCLINATION":53.1605,"RA_OF_ASC_NODE":204.4502,"ARG_OF_PERICENTER":91.7379,"MEAN_ANOMALY":268.3749,"EPHEMERIS_TYPE":0,"CLASSIFICATION_TYPE":"U","NORAD_CAT_ID":58842,"ELEMENT_SET_NO":999,"REV_AT_EPOCH":12005,"BSTAR":1.6503119e-5,"MEAN_MOTION_DOT":1.3e-6,"MEAN_MOTION_DDOT":0},{"OBJECT_NAME":"OV1-2","OBJECT_ID":"1965-078A","EPOCH":"2026-03-09T03:01:50.580768","MEAN_MOTION":13.00501958,"ECCENTRICITY":0.1131046,"INCLINATION":144.2289,"RA_OF_ASC_NODE":293.9642,"ARG_OF_PERICENTER":92.8937,"MEAN_ANOMALY":280.1442,"EPHEMERIS_TYPE":0,"CLASSIFICATION_TYPE":"U","NORAD_CAT_ID":1613,"ELEMENT_SET_NO":999,"REV_AT_EPOCH":70168,"BSTAR":0.00044752779,"MEAN_MOTION_DOT":4.816e-5,"MEAN_MOTION_DDOT":0}]
